GOES 1 (SMS-C) [-]      
1 08366U 75100A   18062.58999645 -.00000097  00000-0  00000-0 0  9995
2 08366  11.6110 315.3907 0005694 317.6889 352.9299  1.00227373154700
GOES 2 [-]              
1 10061U 77048A   18062.07767396 -.00000288  00000-0  00000-0 0  9995
2 10061  12.9012 324.6333 0018442 331.4446 211.1774  0.99399554 16174
GOES 3 [-]              
1 10953U 78062A   18061.89459038 -.00000020  00000-0  00000-0 0  9996
2 10953  13.0729 328.2925 0005169 334.5094 205.6605  0.99361531 98505
GOES 4 [-]              
1 11964U 80074A   18058.69724587 -.00000290  00000-0  00000-0 0  9992
2 11964  13.8793 332.0581 0035233  17.5075 183.8862  0.99231227 97543
GOES 5 [-]              
1 12472U 81049A   18059.61858323 -.00000100  00000-0  00000-0 0  9999
2 12472  14.1423 342.3266 0005256 294.5102 356.7137  1.00205031 92577
GOES 6 [-]              
1 14050U 83041A   18060.33448946 -.00000117  00000-0  00000-0 0  9992
2 14050  14.4098 347.2219 0002683 305.8580 240.8350  1.00217913185677
GOES 7 [-]              
1 17561U 87022A   18061.54334307  .00000018  00000-0  00000-0 0  9993
2 17561  15.1279   3.1301 0007727 316.9190 227.5051  0.99905315 96702
GOES 8 [-]              
1 23051U 94022A   18062.72007903 -.00000299  00000-0  00000-0 0  9994
2 23051  11.6989  36.5051 0009521 267.8272 270.8960  0.98908046 94175
GOES 9 [-]              
1 23581U 95025A   18062.84420906 -.00000142  00000-0  00000+0 0  9997
2 23581  11.1947  36.0663 0002219 309.8752  51.1604  0.98799589 82849
GOES 10 [-]             
1 24786U 97019A   18062.83545366 -.00000207  00000-0  00000-0 0  9990
2 24786   9.6093  41.0052 0028061 175.0255 185.0756  0.99123110 76056
GOES 11 [-]             
1 26352U 00022A   18062.35326622 -.00000020  00000-0  00000-0 0  9991
2 26352   5.4756  71.6055 0005241 207.0790 272.0591  0.99040215 22480
GOES 12 [-]             
1 26871U 01031A   18062.22059880 -.00000192  00000-0  00000-0 0  9993
2 26871   6.7904  58.1597 0011509 243.8409 298.7207  0.99140321 60744
GOES 13 [B]             
1 29155U 06018A   18062.71768604 -.00000311  00000-0  00000+0 0  9998
2 29155   0.3904 275.9920 0006964 135.7928 308.2430  1.00274306 43161
GOES 14 [S]             
1 35491U 09033A   18062.84080490 -.00000120  00000-0  00000+0 0  9990
2 35491   0.0391 123.8183 0007839 123.1975 112.8686  1.00271984 31804
GOES 15 [+]             
1 36411U 10008A   18062.92694251  .00000062  00000-0  00000+0 0  9996
2 36411   0.0248 149.9790 0000576 194.5943  15.3917  1.00276344 29333
GOES 16 [+]             
1 41866U 16071A   18061.76309300 -.00000277  00000-0  00000-0 0  9991
2 41866   0.0080 178.1536 0001606 203.0268 338.8262  1.00269674  4742
